{
  "links" : {
    "next" : "https://api.nasa.gov/neo/rest/v1/feed?start_date=2014-04-09&end_date=2014-04-09&detailed=true&api_key=t0TVs3DtDT2H8Oy2Zy8m2eVrNsAVKAexjcZXUckd",
    "prev" : "https://api.nasa.gov/neo/rest/v1/feed?start_date=2014-04-07&end_date=2014-04-07&detailed=true&api_key=t0TVs3DtDT2H8Oy2Zy8m2eVrNsAVKAexjcZXUckd",
    "self" : "https://api.nasa.gov/neo/rest/v1/feed?start_date=2014-04-08&end_date=2014-04-08&detailed=true&api_key=t0TVs3DtDT2H8Oy2Zy8m2eVrNsAVKAexjcZXUckd"
  },
  "element_count" : 7,
  "near_earth_objects" : {
    "2014-04-08" : [ {
      "links" : {
        "self" : "https://api.nasa.gov/neo/rest/v1/neo/3698543?api_key=t0TVs3DtDT2H8Oy2Zy8m2eVrNsAVKAexjcZXUckd"
      },
      "neo_reference_id" : "3698543",
      "name" : "(2014 HS198)",
      "nasa_jpl_url" : "http://ssd.jpl.nasa.gov/sbdb.cgi?sstr=3698543",
      "absolute_magnitude_h" : 25.5,
      "estimated_diameter" : {
        "kilometers" : {
          "estimated_diameter_min" : 0.0211132445,
          "estimated_diameter_max" : 0.0472106499
        },
        "meters" : {
          "estimated_diameter_min" : 21.113244479,
          "estimated_diameter_max" : 47.2106498806
        },
        "miles" : {
          "estimated_diameter_min" : 0.0131191578,
          "estimated_diameter_max" : 0.0293353287
        },
        "feet" : {
          "estimated_diameter_min" : 69.2691770164,
          "estimated_diameter_max" : 154.8905885541
        }
      },
      "is_potentially_hazardous_asteroid" : false,
      "close_approach_data" : [ {
        "close_approach_date" : "2014-04-08",
        "epoch_date_close_approach" : 1396940400000,
        "relative_velocity" : {
          "kilometers_per_second" : "4.7176606298",
          "kilometers_per_hour" : "16983.5782674148",
          "miles_per_hour" : "10552.9350628834"
        },
        "miss_distance" : {
          "astronomical" : "0.1357166837",
          "lunar" : "52.7937889099",
          "kilometers" : "20302926",
          "miles" : "12615653"
        },
        "orbiting_body" : "Earth"
      } ],
      "orbital_data" : {
        "orbit_id" : "3",
        "orbit_determination_date" : "2017-04-06 08:40:47",
        "orbit_uncertainty" : "9",
        "minimum_orbit_intersection" : ".125415",
        "jupiter_tisserand_invariant" : "4.467",
        "epoch_osculation" : "2456777.5",
        "eccentricity" : ".260379148552605",
        "semi_major_axis" : "1.514385398278468",
        "inclination" : "8.339448748229701",
        "ascending_node_longitude" : "24.73835056311259",
        "orbital_period" : "680.6957626615127",
        "perihelion_distance" : "1.120071017694223",
        "perihelion_argument" : "160.7239080872083",
        "aphelion_distance" : "1.908699778862714",
        "perihelion_time" : "2456739.444824822934",
        "mean_anomaly" : "20.12626464747988",
        "mean_motion" : ".5288706346465329",
        "equinox" : "J2000"
      }
    }, {
      "links" : {
        "self" : "https://api.nasa.gov/neo/rest/v1/neo/3691158?api_key=t0TVs3DtDT2H8Oy2Zy8m2eVrNsAVKAexjcZXUckd"
      },
      "neo_reference_id" : "3691158",
      "name" : "(2014 SV261)",
      "nasa_jpl_url" : "http://ssd.jpl.nasa.gov/sbdb.cgi?sstr=3691158",
      "absolute_magnitude_h" : 23.5,
      "estimated_diameter" : {
        "kilometers" : {
          "estimated_diameter_min" : 0.0530340723,
          "estimated_diameter_max" : 0.1185877909
        },
        "meters" : {
          "estimated_diameter_min" : 53.0340723319,
          "estimated_diameter_max" : 118.5877908577
        },
        "miles" : {
          "estimated_diameter_min" : 0.0329538346,
          "estimated_diameter_max" : 0.0736870142
        },
        "feet" : {
          "estimated_diameter_min" : 173.9963058693,
          "estimated_diameter_max" : 389.0675677576
        }
      },
      "is_potentially_hazardous_asteroid" : false,
      "close_approach_data" : [ {
        "close_approach_date" : "2014-04-08",
        "epoch_date_close_approach" : 1396940400000,
        "relative_velocity" : {
          "kilometers_per_second" : "15.83410863",
          "kilometers_per_hour" : "57002.7910681472",
          "miles_per_hour" : "35419.3175945385"
        },
        "miss_distance" : {
          "astronomical" : "0.3122579718",
          "lunar" : "121.4683532715",
          "kilometers" : "46713128",
          "miles" : "29026192"
        },
        "orbiting_body" : "Earth"
      } ],
      "orbital_data" : {
        "orbit_id" : "10",
        "orbit_determination_date" : "2017-04-06 08:38:22",
        "orbit_uncertainty" : "8",
        "minimum_orbit_intersection" : ".0954633",
        "jupiter_tisserand_invariant" : "5.259",
        "epoch_osculation" : "2456928.5",
        "eccentricity" : ".1057486873335425",
        "semi_major_axis" : "1.175397550054238",
        "inclination" : "28.30856035858702",
        "ascending_node_longitude" : "186.3376010129468",
        "orbital_period" : "465.4527479055257",
        "perihelion_distance" : "1.051100802040941",
        "perihelion_argument" : "122.7892222687728",
        "aphelion_distance" : "1.299694298067536",
        "perihelion_time" : "2456869.715675571563",
        "mean_anomaly" : "45.46617651193394",
        "mean_motion" : ".7734404869666175",
        "equinox" : "J2000"
      }
    }, {
      "links" : {
        "self" : "https://api.nasa.gov/neo/rest/v1/neo/2252793?api_key=t0TVs3DtDT2H8Oy2Zy8m2eVrNsAVKAexjcZXUckd"
      },
      "neo_reference_id" : "2252793",
      "name" : "252793 (2002 FW5)",
      "nasa_jpl_url" : "http://ssd.jpl.nasa.gov/sbdb.cgi?sstr=2252793",
      "absolute_magnitude_h" : 19.2,
      "estimated_diameter" : {
        "kilometers" : {
          "estimated_diameter_min" : 0.3841978911,
          "estimated_diameter_max" : 0.8590926012
        },
        "meters" : {
          "estimated_diameter_min" : 384.1978910643,
          "estimated_diameter_max" : 859.0926012318
        },
        "miles" : {
          "estimated_diameter_min" : 0.2387294278,
          "estimated_diameter_max" : 0.5338152287
        },
        "feet" : {
          "estimated_diameter_min" : 1260.4918089193,
          "estimated_diameter_max" : 2818.5453698252
        }
      },
      "is_potentially_hazardous_asteroid" : false,
      "close_approach_data" : [ {
        "close_approach_date" : "2014-04-08",
        "epoch_date_close_approach" : 1396940400000,
        "relative_velocity" : {
          "kilometers_per_second" : "23.7013676161",
          "kilometers_per_hour" : "85324.923418036",
          "miles_per_hour" : "53017.5892205013"
        },
        "miss_distance" : {
          "astronomical" : "0.2771813634",
          "lunar" : "107.8235473633",
          "kilometers" : "41465740",
          "miles" : "25765618"
        },
        "orbiting_body" : "Earth"
      } ],
      "orbital_data" : {
        "orbit_id" : "93",
        "orbit_determination_date" : "2017-05-11 06:16:47",
        "orbit_uncertainty" : "0",
        "minimum_orbit_intersection" : ".224056",
        "jupiter_tisserand_invariant" : "4.633",
        "epoch_osculation" : "2458000.5",
        "eccentricity" : ".2177546520742673",
        "semi_major_axis" : "1.314899411148717",
        "inclination" : "46.44804088166741",
        "ascending_node_longitude" : "21.75193980628714",
        "orbital_period" : "550.7280834938044",
        "perihelion_distance" : "1.028573947361369",
        "perihelion_argument" : "85.46625051491108",
        "aphelion_distance" : "1.601224874936064",
        "perihelion_time" : "2457765.854510609301",
        "mean_anomaly" : "153.3830917878041",
        "mean_motion" : ".6536801205345649",
        "equinox" : "J2000"
      }
    } ]
  }
}